     2.11           N: GPS NAV DATA                         RINEX VERSION / TYPE
teqc  2018Dec12     gpsops              20210516 01:03:58UTCPGM / RUN BY / DATE
Linux 2.6.32-573.12.1.x86_64|x86_64|gcc -static|Linux 64|=+ COMMENT
CHPI                                    MARKER NAME         COMMENT
41609M003                               MARKER NUMBER       COMMENT
4164613.9484 -4162456.9866 -2445028.7316                    COMMENT
                                                            COMMENT
This data is provided as a public service by NASA/JPL.      COMMENT
No warranty is expressed or implied regarding suitability   COMMENT
for use.  For further information, contact:                 COMMENT
Dave Stowers, NASA/JPL m/s 238-600                          COMMENT
4800 Oak Grove Drive, Pasadena CA 91109 USA                 COMMENT
                                                            END OF HEADER
28 21  5 15 22  0  0.0 5.707535892725D-04-6.252776074689D-12 0.000000000000D+00
    3.900000000000D+01 1.065000000000D+02 4.109456889660D-09-7.978944023160D-01
    5.574896931648D-06 1.741983764805D-02 7.970258593559D-06 5.154315647125D+03
    5.976000000000D+05-2.700835466385D-07 1.083038510661D+00 5.029141902924D-08
    9.729739071944D-01 2.404687500000D+02-1.337845963912D+00-8.072836266034D-09
    2.189376910622D-10 1.000000000000D+00 2.157000000000D+03 0.000000000000D+00
    2.000000000000D+00 0.000000000000D+00-1.117587089539D-08 3.900000000000D+01
    5.904180000000D+05 4.000000000000D+00
30 21  5 15 22  0  0.0-4.265210591257D-04-5.002220859751D-12 0.000000000000D+00
    9.100000000000D+01 1.168750000000D+01 4.926633785501D-09 1.984148505578D+00
    6.221234798431D-07 5.208046874031D-03 8.737668395042D-06 5.153705677032D+03
    5.976000000000D+05-5.960464477539D-08-3.202674825976D-02 2.048909664154D-08
    9.372718127903D-01 2.006250000000D+02-2.786083209674D+00-8.065335953616D-09
   -4.950206195958D-10 1.000000000000D+00 2.157000000000D+03 0.000000000000D+00
    2.000000000000D+00 0.000000000000D+00 3.725290298462D-09 9.100000000000D+01
    5.904180000000D+05 4.000000000000D+00
 9 21  5 15 22  0  0.0-3.456850536168D-04-2.273736754432D-12 0.000000000000D+00
    1.030000000000D+02 2.718750000000D+00 4.963778189857D-09-9.113442157732D-01
    9.685754776001D-08 1.852433895692D-03 5.988404154778D-06 5.153777149200D+03
    5.976000000000D+05-2.421438694000D-08-1.121900974787D+00 2.793967723846D-08
    9.529115086349D-01 2.592500000000D+02 1.834211453972D+00-8.156054018102D-09
    8.964659128322D-11 1.000000000000D+00 2.157000000000D+03 0.000000000000D+00
    2.000000000000D+00 0.000000000000D+00 1.396983861923D-09 1.030000000000D+02
    5.904180000000D+05 4.000000000000D+00
 7 21  5 15 22  0  0.0 1.518474891782D-04 1.068656274583D-11 0.000000000000D+00
    1.570000000000D+02 7.562500000000D+00 4.556261215139D-09 2.139691032091D+00
    2.346932888031D-07 1.489561412018D-02 8.787959814072D-06 5.153760433197D+03
    5.976000000000D+05-2.123415470123D-07-4.936655972108D-02-2.384185791016D-07
    9.520513581548D-01 2.062500000000D+02-2.335312970153D+00-7.834254899591D-09
   -4.260891768959D-10 1.000000000000D+00 2.157000000000D+03 0.000000000000D+00
    2.800000000000D+00 0.000000000000D+00-1.117587089539D-08 1.570000000000D+02
    5.904180000000D+05 4.000000000000D+00
 8 21  5 15 22  0  0.0-2.133939415216D-05-1.364242052659D-12 0.000000000000D+00
    8.800000000000D+01 3.284375000000D+01 4.529831542809D-09-1.324402530887D+00
    1.490116119385D-06 6.341858650558D-03 1.860782504082D-06 5.153599372864D+03
    5.976000000000D+05 4.097819328308D-08 2.019385209168D+00-6.891787052155D-08
    9.672276586058D-01 3.441875000000D+02 4.716235618144D-02-8.287845222020D-09
    2.135803250493D-10 1.000000000000D+00 2.157000000000D+03 0.000000000000D+00
    2.000000000000D+00 0.000000000000D+00 5.122274160385D-09 8.800000000000D+01
    5.904180000000D+05 4.000000000000D+00
 5 21  5 15 22  0  0.0-4.204129800200D-05-1.136868377216D-12 0.000000000000D+00
    7.800000000000D+01-5.725000000000D+01 4.497330188997D-09-8.385188912890D-01
   -2.976506948471D-06 6.080128368922D-03 9.587034583092D-06 5.153875511169D+03
    5.976000000000D+05 2.048909664154D-08-2.188659262626D+00 1.564621925354D-07
    9.561339411936D-01 1.910000000000D+02 8.897918117434D-01-7.906043604165D-09
    2.239378993409D-10 1.000000000000D+00 2.157000000000D+03 0.000000000000D+00
    2.000000000000D+00 0.000000000000D+00-1.117587089539D-08 7.800000000000D+01
    5.904180000000D+05 4.000000000000D+00
17 21  5 15 22  0  0.0 4.429556429386D-04 6.025402399246D-12 0.000000000000D+00
    9.000000000000D+01 2.575000000000D+01 4.316608375494D-09-1.364023215213D+00
    1.758337020874D-06 1.334633247461D-02 1.806765794754D-06 5.153597070694D+03
    5.976000000000D+05-8.009374141693D-08 2.097224442525D+00 2.849847078323D-07
    9.820184523474D-01 3.593437500000D+02-1.568103068278D+00-8.198912946205D-09
    1.289339420448D-10 1.000000000000D+00 2.157000000000D+03 0.000000000000D+00
    2.800000000000D+00 0.000000000000D+00-1.117587089539D-08 9.000000000000D+01
    5.904180000000D+05 4.000000000000D+00
 4 21  5 15 22  0  0.0-1.964033581316D-04-1.477928890381D-12 0.000000000000D+00
    1.500000000000D+02 3.531250000000D+00 4.723411034743D-09-1.947701583989D+00
    1.359730958939D-07 1.220240956172D-03 6.103888154030D-06 5.153738094330D+03
    5.976000000000D+05-4.284083843231D-08-1.071140792491D+00 1.490116119385D-08
    9.600749635016D-01 2.616875000000D+02-2.918112389951D+00-7.982832517017D-09
    6.571702309208D-11 1.000000000000D+00 2.157000000000D+03 0.000000000000D+00
    2.000000000000D+00 0.000000000000D+00-4.190951585770D-09 9.180000000000D+02
    5.904180000000D+05 4.000000000000D+00
13 21  5 15 22  0  0.0 1.324820332229D-04 4.774847184308D-12 0.000000000000D+00
    9.000000000000D+01-3.812500000000D+00 4.486615456971D-09-1.931767056023D+00
   -1.396983861923D-07 4.943612613715D-03 6.236135959625D-06 5.153671215057D+03
    5.976000000000D+05 8.195638656616D-08-9.733970328421D-01-1.024454832077D-07
    9.677845198356D-01 2.647812500000D+02 9.718290582268D-01-7.764966299157D-09
   -3.000124967247D-11 1.000000000000D+00 2.157000000000D+03 0.000000000000D+00
    2.000000000000D+00 0.000000000000D+00-1.117587089539D-08 9.000000000000D+01
    5.904180000000D+05 4.000000000000D+00
 7 21  5 15 21 59 44.0 1.518465578556D-04 1.068656274583D-11 0.000000000000D+00
    5.000000000000D+00 7.593750000000D+00 4.556261215139D-09 2.137357279841D+00
    2.346932888031D-07 1.489561470225D-02 8.787959814072D-06 5.153760427475D+03
    5.975840000000D+05-2.123415470123D-07-4.936645146514D-02-2.384185791016D-07
    9.520513523031D-01 2.062500000000D+02-2.335312760956D+00-7.833897741857D-09
   -4.260891768959D-10 1.000000000000D+00 2.157000000000D+03 0.000000000000D+00
    2.000000000000D+00 0.000000000000D+00-1.117587089539D-08 5.000000000000D+00
    5.907060000000D+05 4.000000000000D+00
19 21  5 15 22  0  0.0 4.931353032589D-07 5.002220859751D-12 0.000000000000D+00
    6.900000000000D+01 1.350000000000D+01 4.359467303597D-09 1.116424782339D+00
    5.550682544708D-07 9.271985967644D-03 1.644715666771D-06 5.153633304596D+03
    5.976000000000D+05-5.029141902924D-08 2.142409432318D+00-2.440065145493D-07
    9.805562042846D-01 3.595312500000D+02 1.832792338586D+00-8.251415133132D-09
    1.178620522847D-10 1.000000000000D+00 2.157000000000D+03 0.000000000000D+00
    2.000000000000D+00 0.000000000000D+00-1.536682248116D-08 6.900000000000D+01
    5.909820000000D+05 4.000000000000D+00
20 21  5 15 22  0  0.0 5.221548490226D-04-3.410605131648D-13 0.000000000000D+00
    2.700000000000D+01-7.340625000000D+01 4.775913221670D-09 2.911891588293D+00
   -3.775581717491D-06 6.054779165424D-03 9.452924132347D-06 5.151722652435D+03
    5.976000000000D+05-1.154839992523D-07-2.297437251586D+00 4.097819328308D-08
    9.381041327169D-01 1.870312500000D+02 3.030675856454D+00-7.962117368433D-09
    2.217949529358D-10 1.000000000000D+00 2.157000000000D+03 0.000000000000D+00
    2.000000000000D+00 0.000000000000D+00-8.381903171539D-09 2.700000000000D+01
    5.925180000000D+05 4.000000000000D+00
15 21  5 15 22  0  0.0-1.491573639214D-04 2.614797267597D-12 0.000000000000D+00
    5.400000000000D+01-2.093750000000D+00 5.339508126231D-09-2.272030773784D+00
   -9.313225746155D-08 1.314073917456D-02 6.055459380150D-06 5.153605220795D+03
    5.976000000000D+05 1.378357410431D-07-1.220694335733D+00-8.381903171539D-08
    9.285500883069D-01 2.443750000000D+02 9.815612070613D-01-8.095694361023D-09
    2.675111429129D-10 1.000000000000D+00 2.157000000000D+03 0.000000000000D+00
    2.000000000000D+00 0.000000000000D+00-1.071020960808D-08 5.400000000000D+01
    5.948880000000D+05 4.000000000000D+00
 6 21  5 15 22  0  0.0 1.613423228264D-05 3.751665644813D-12 0.000000000000D+00
    3.500000000000D+01-1.103125000000D+02 4.071598169835D-09 2.942706853129D+00
   -5.491077899933D-06 2.223887131549D-03 5.755573511124D-06 5.153767417908D+03
    5.976000000000D+05 4.656612873077D-08 3.085766001237D+00 1.266598701477D-07
    9.840294219638D-01 2.807812500000D+02-9.704459598838D-01-7.896400345341D-09
   -1.364342544629D-10 1.000000000000D+00 2.157000000000D+03 0.000000000000D+00
    2.000000000000D+00 0.000000000000D+00 4.190951585770D-09 3.500000000000D+01
    5.975880000000D+05 4.000000000000D+00
28 21  5 16  0  0  0.0 5.707088857889D-04-6.252776074689D-12 0.000000000000D+00
    4.200000000000D+01 9.584375000000D+01 4.053740283126D-09 2.518485536803D-01
    4.991888999939D-06 1.741978910286D-02 7.625669240952D-06 5.154315153122D+03
    0.000000000000D+00-1.937150955200D-07 9.625659794453D-01-2.142041921616D-07
    9.729749253854D-01 2.411562500000D+02-1.337802942417D+00-8.096051518757D-09
    2.535819912792D-11 1.000000000000D+00 2.158000000000D+03 0.000000000000D+00
    2.800000000000D+00 0.000000000000D+00-1.117587089539D-08 4.200000000000D+01
   -7.182000000000D+03 4.000000000000D+00
